$$SOE
2461295.500000000, A.D. 2026-Sep-12 00:00:00.0000, -4.661004915318324E+08, -2.515786984723734E+07, 7.514266503370482E+07,
2461302.500000000, A.D. 2026-Sep-19 00:00:00.0000, -4.674383563777575E+08, -3.436147569282700E+07, 7.592990274182968E+07,
2461309.500000000, A.D. 2026-Sep-26 00:00:00.0000, -4.685642166181905E+08, -4.354944814844881E+07, 7.668269519734433E+07,
2461316.500000000, A.D. 2026-Oct-03 00:00:00.0000, -4.694801997746817E+08, -5.271786875349554E+07, 7.740113271405984E+07,
2461323.500000000, A.D. 2026-Oct-10 00:00:00.0000, -4.701884407629292E+08, -6.186292030911726E+07, 7.808531314312288E+07,
2461330.500000000, A.D. 2026-Oct-17 00:00:00.0000, -4.706910800702104E+08, -7.098088284014942E+07, 7.873534133399338E+07,
2461337.500000000, A.D. 2026-Oct-24 00:00:00.0000, -4.709902621314608E+08, -8.006812977591287E+07, 7.935132862516777E+07,
2461344.500000000, A.D. 2026-Oct-31 00:00:00.0000, -4.710881337919134E+08, -8.912112441483162E+07, 7.993339234805110E+07,
2461351.500000000, A.D. 2026-Nov-07 00:00:00.0000, -4.709868425048648E+08, -9.813641659670223E+07, 8.048165531700847E+07,
2461358.500000000, A.D. 2026-Nov-14 00:00:00.0000, -4.706885340519624E+08, -1.071106386928313E+08, 8.099624535787326E+07,
2461365.500000000, A.D. 2026-Nov-21 00:00:00.0000, -4.701953515867195E+08, -1.160405002299040E+08, 8.147729509507473E+07,
2461372.500000000, A.D. 2026-Nov-28 00:00:00.0000, -4.695094369900316E+08, -1.249227841537190E+08, 8.192494184172261E+07,
2461379.500000000, A.D. 2026-Dec-05 00:00:00.0000, -4.686329309104452E+08, -1.337543453863668E+08, 8.233932720607597E+07,
2461386.500000000, A.D. 2026-Dec-12 00:00:00.0000, -4.675679713157019E+08, -1.425321085619731E+08, 8.272059665233000E+07,
2461393.500000000, A.D. 2026-Dec-19 00:00:00.0000, -4.663166924337496E+08, -1.512530649313390E+08, 8.306889918786286E+07,
2461400.500000000, A.D. 2026-Dec-26 00:00:00.0000, -4.648812242181035E+08, -1.599142693012877E+08, 8.338438711783129E+07,
2461407.500000000, A.D. 2027-Jan-02 00:00:00.0000, -4.632636920559995E+08, -1.685128371973482E+08, 8.366721582531561E+07,
2461414.500000000, A.D. 2027-Jan-09 00:00:00.0000, -4.614662165976176E+08, -1.770459422268676E+08, 8.391754356713423E+07,
2461421.500000000, A.D. 2027-Jan-16 00:00:00.0000, -4.594909136669077E+08, -1.855108136307696E+08, 8.413553128196019E+07,
2461428.500000000, A.D. 2027-Jan-23 00:00:00.0000, -4.573398942045153E+08, -1.939047340605121E+08, 8.432134240239088E+07,
2461435.500000000, A.D. 2027-Jan-30 00:00:00.0000, -4.550152640520099E+08, -2.022250376247231E+08, 8.447514264888825E+07,
2461442.500000000, A.D. 2027-Feb-06 00:00:00.0000, -4.525191231495896E+08, -2.104691078618747E+08, 8.459709979331309E+07,
2461449.500000000, A.D. 2027-Feb-13 00:00:00.0000, -4.498535646039354E+08, -2.186343744156867E+08, 8.468738353260645E+07,
2461456.500000000, A.D. 2027-Feb-20 00:00:00.0000, -4.470206759860474E+08, -2.267183092014863E+08, 8.474616562333196E+07,
2461463.500000000, A.D. 2027-Feb-27 00:00:00.0000, -4.440225414601699E+08, -2.347184252757806E+08, 8.477361988538641E+07,
2461470.500000000, A.D. 2027-Mar-06 00:00:00.0000, -4.408612417239991E+08, -2.426322764849956E+08, 8.476992195467065E+07,
2461477.500000000, A.D. 2027-Mar-13 00:00:00.0000, -4.375388533584880E+08, -2.504574558416020E+08, 8.473524909846561E+07,
2461484.500000000, A.D. 2027-Mar-20 00:00:00.0000, -4.340574487145596E+08, -2.581915934599265E+08, 8.466978012829360E+07,
2461491.500000000, A.D. 2027-Mar-27 00:00:00.0000, -4.304190961331140E+08, -2.658323545984480E+08, 8.457369534639092E+07,
2461498.500000000, A.D. 2027-Apr-03 00:00:00.0000, -4.266258602941798E+08, -2.733774378539595E+08, 8.444717650288428E+07,
2461505.500000000, A.D. 2027-Apr-10 00:00:00.0000, -4.226798026326128E+08, -2.808245734818166E+08, 8.429040675949863E+07,
2461512.500000000, A.D. 2027-Apr-17 00:00:00.0000, -4.185829817965792E+08, -2.881715218537802E+08, 8.410357065605700E+07,
2461519.500000000, A.D. 2027-Apr-24 00:00:00.0000, -4.143374540677227E+08, -2.954160721129940E+08, 8.388685406683138E+07,
2461526.500000000, A.D. 2027-May-01 00:00:00.0000, -4.099452734415165E+08, -3.025560409959536E+08, 8.364044412097304E+07,
2461533.500000000, A.D. 2027-May-08 00:00:00.0000, -4.054084910586149E+08, -3.095892710709550E+08, 8.336452911948562E+07,
2461540.500000000, A.D. 2027-May-15 00:00:00.0000, -4.007291554822479E+08, -3.165136274377088E+08, 8.305929866347732E+07,
2461547.500000000, A.D. 2027-May-22 00:00:00.0000, -3.959093153839883E+08, -3.233269954785821E+08, 8.272494392500758E+07,
2461554.500000000, A.D. 2027-May-29 00:00:00.0000, -3.909510212817426E+08, -3.300272811293302E+08, 8.236165763287741E+07,
2461561.500000000, A.D. 2027-Jun-05 00:00:00.0000, -3.858563254455638E+08, -3.366124105364485E+08, 8.196963394844791E+07,
2461568.500000000, A.D. 2027-Jun-12 00:00:00.0000, -3.806272819786340E+08, -3.430803286674256E+08, 8.154906845093991E+07,
2461575.500000000, A.D. 2027-Jun-19 00:00:00.0000, -3.752659474038678E+08, -3.494289978072044E+08, 8.110015818607469E+07,
2461582.500000000, A.D. 2027-Jun-26 00:00:00.0000, -3.697743814763495E+08, -3.556563962010046E+08, 8.062310173107669E+07,
2461589.500000000, A.D. 2027-Jul-03 00:00:00.0000, -3.641546480895466E+08, -3.617605168343490E+08, 8.011809926477188E+07,
2461596.500000000, A.D. 2027-Jul-10 00:00:00.0000, -3.584088162387993E+08, -3.677393663406433E+08, 7.958535264037348E+07,
2461603.500000000, A.D. 2027-Jul-17 00:00:00.0000, -3.525389610060981E+08, -3.735909640741436E+08, 7.902506545470059E+07,
2461610.500000000, A.D. 2027-Jul-24 00:00:00.0000, -3.465471644100340E+08, -3.793133414101153E+08, 7.843744309457354E+07,
2461617.500000000, A.D. 2027-Jul-31 00:00:00.0000, -3.404355157098300E+08, -3.849045410357425E+08, 7.782269274210049E+07,
2461624.500000000, A.D. 2027-Aug-07 00:00:00.0000, -3.342061113644629E+08, -3.903626150790883E+08, 7.718102345151803E+07,
2461631.500000000, A.D. 2027-Aug-14 00:00:00.0000, -3.278610569479972E+08, -3.956856223285024E+08, 7.651264648791434E+07,
2461638.500000000, A.D. 2027-Aug-21 00:00:00.0000, -3.214024704030515E+08, -4.008716279065524E+08, 7.581777559621681E+07,
2461645.500000000, A.D. 2027-Aug-28 00:00:00.0000, -3.148324832024310E+08, -4.059187041958537E+08, 7.509662698437811E+07,
2461652.500000000, A.D. 2027-Sep-04 00:00:00.0000, -3.081532406015129E+08, -4.108249305144506E+08, 7.434941933379179E+07,
2461659.500000000, A.D. 2027-Sep-11 00:00:00.0000, -3.013669023777031E+08, -4.155883922015240E+08, 7.357637391080610E+07,
2461666.500000000, A.D. 2027-Sep-18 00:00:00.0000, -2.944756439245932E+08, -4.202071797631878E+08, 7.277771471381027E+07,
2461673.500000000, A.D. 2027-Sep-25 00:00:00.0000, -2.874816574729363E+08, -4.246793881558754E+08, 7.195366862843043E+07,
2461680.500000000, A.D. 2027-Oct-02 00:00:00.0000, -2.803871533647308E+08, -4.290031161796742E+08, 7.110446558616690E+07,
2461687.500000000, A.D. 2027-Oct-09 00:00:00.0000, -2.731943613594708E+08, -4.331764659857026E+08, 7.023033872401565E+07,
2461694.500000000, A.D. 2027-Oct-16 00:00:00.0000, -2.659055319106475E+08, -4.371975427516066E+08, 6.933152453467430E+07,
2461701.500000000, A.D. 2027-Oct-23 00:00:00.0000, -2.585229371533637E+08, -4.410644545301186E+08, 6.840826298283830E+07,
2461708.500000000, A.D. 2027-Oct-30 00:00:00.0000, -2.510488712287807E+08, -4.447753116602097E+08, 6.746079760298869E+07,
2461715.500000000, A.D. 2027-Nov-06 00:00:00.0000, -2.434856511093552E+08, -4.483282246132683E+08, 6.648937577763550E+07,
2461722.500000000, A.D. 2027-Nov-13 00:00:00.0000, -2.358356199110975E+08, -4.517213023517919E+08, 6.549424920866570E+07,
2461729.500000000, A.D. 2027-Nov-20 00:00:00.0000, -2.281011497926207E+08, -4.549526533888499E+08, 6.447567413758317E+07,
2461736.500000000, A.D. 2027-Nov-27 00:00:00.0000, -2.202846428262241E+08, -4.580203865864307E+08, 6.343391140938520E+07,
2461743.500000000, A.D. 2027-Dec-04 00:00:00.0000, -2.123885318675204E+08, -4.609226107802718E+08, 6.236922664102745E+07,
2461750.500000000, A.D. 2027-Dec-11 00:00:00.0000, -2.044152819765655E+08, -4.636574341960099E+08, 6.128189046661249E+07,
2461757.500000000, A.D. 2027-Dec-18 00:00:00.0000, -1.963673921174105E+08, -4.662229639967077E+08, 6.017217880669348E+07,
2461764.500000000, A.D. 2027-Dec-25 00:00:00.0000, -1.882473969857369E+08, -4.686173059653749E+08, 5.904037314792725E+07,
2461771.500000000, A.D. 2028-Jan-01 00:00:00.0000, -1.800578689248814E+08, -4.708385643100208E+08, 5.788676083096120E+07,
$$EOE